{
  "type": "FeatureCollection",
  "features": [
    {
      "type": "Feature",
      "properties": {
        "norad_id": 66828,
        "name": "STARLINK-35982",
        "group": "last-30-days",
        "lat": -51.916035041044736,
        "lon": 16.8725104449348,
        "alt_km": 413.9781114080133,
        "timestamp": "2025-12-23T09:49:05.797817+00:00",
        "meta_object_name": "STARLINK-35982",
        "meta_object_id": "2025-280H",
        "meta_epoch": "2025-12-22T22:00:03.000096",
        "meta_mean_motion": 15.5251636,
        "meta_eccentricity": 0.000329,
        "meta_inclination": 69.9998,
        "meta_ra_of_asc_node": 170.5237,
        "meta_arg_of_pericenter": 274.9989,
        "meta_mean_anomaly": 90.658,
        "meta_ephemeris_type": 0,
        "meta_classification_type": "U",
        "meta_norad_cat_id": 66828,
        "meta_element_set_no": 999,
        "meta_rev_at_epoch": 453,
        "meta_bstar": -3.406886e-05,
        "meta_mean_motion_dot": -2.263e-05,
        "meta_mean_motion_ddot": 0,
        "tle_line1": "1 66828U 25280H   25356.91670139 -.00002263  00000+0 -34069-4 0  9994",
        "tle_line2": "2 66828  69.9998 170.5237 0003290 274.9989  90.6580 15.52516360  4533"
      },
      "geometry": {
        "type": "Point",
        "coordinates": [
          16.8725104449348,
          -51.916035041044736
        ]
      }
    },
    {
      "type": "Feature",
      "properties": {
        "norad_id": 66829,
        "name": "STARLINK-36084",
        "group": "last-30-days",
        "lat": -50.32801041303487,
        "lon": 15.22756070070853,
        "alt_km": 413.8764618925288,
        "timestamp": "2025-12-23T09:49:05.797827+00:00",
        "meta_object_name": "STARLINK-36084",
        "meta_object_id": "2025-280J",
        "meta_epoch": "2025-12-22T22:00:03.000096",
        "meta_mean_motion": 15.52439681,
        "meta_eccentricity": 0.00033179,
        "meta_inclination": 69.9998,
        "meta_ra_of_asc_node": 170.5253,
        "meta_arg_of_pericenter": 274.8735,
        "meta_mean_anomaly": 88.9315,
        "meta_ephemeris_type": 0,
        "meta_classification_type": "U",
        "meta_norad_cat_id": 66829,
        "meta_element_set_no": 999,
        "meta_rev_at_epoch": 437,
        "meta_bstar": 0.0016627204,
        "meta_mean_motion_dot": 0.00103168,
        "meta_mean_motion_ddot": 0,
        "tle_line1": "1 66829U 25280J   25356.91670139  .00103168  00000+0  16627-2 0  9997",
        "tle_line2": "2 66829  69.9998 170.5253 0003317 274.8735  88.9315 15.52439681  4378"
      },
      "geometry": {
        "type": "Point",
        "coordinates": [
          15.22756070070853,
          -50.32801041303487
        ]
      }
    },
    {
      "type": "Feature",
      "properties": {
        "norad_id": 66830,
        "name": "STARLINK-35881",
        "group": "last-30-days",
        "lat": -53.502327178233976,
        "lon": 18.66187881964988,
        "alt_km": 413.83286255278836,
        "timestamp": "2025-12-23T09:49:05.797839+00:00",
        "meta_object_name": "STARLINK-35881",
        "meta_object_id": "2025-280K",
        "meta_epoch": "2025-12-22T22:00:03.000096",
        "meta_mean_motion": 15.52445073,
        "meta_eccentricity": 0.00033037,
        "meta_inclination": 70,
        "meta_ra_of_asc_node": 170.5199,
        "meta_arg_of_pericenter": 275.2655,
        "meta_mean_anomaly": 92.3419,
        "meta_ephemeris_type": 0,
        "meta_classification_type": "U",
        "meta_norad_cat_id": 66830,
        "meta_element_set_no": 999,
        "meta_rev_at_epoch": 453,
        "meta_bstar": 0.0018531,
        "meta_mean_motion_dot": 0.00115197,
        "meta_mean_motion_ddot": 0,
        "tle_line1": "1 66830U 25280K   25356.91670139  .00115197  00000+0  18531-2 0  9990",
        "tle_line2": "2 66830  70.0000 170.5199 0003303 275.2655  92.3419 15.52445073  4531"
      },
      "geometry": {
        "type": "Point",
        "coordinates": [
          18.66187881964988,
          -53.502327178233976
        ]
      }
    },
    {
      "type": "Feature",
      "properties": {
        "norad_id": 66831,
        "name": "STARLINK-35788",
        "group": "last-30-days",
        "lat": -55.04426956778275,
        "lon": 20.573507080545575,
        "alt_km": 414.0280290238743,
        "timestamp": "2025-12-23T09:49:05.797850+00:00",
        "meta_object_name": "STARLINK-35788",
        "meta_object_id": "2025-280L",
        "meta_epoch": "2025-12-22T22:00:03.000096",
        "meta_mean_motion": 15.52515629,
        "meta_eccentricity": 0.000329,
        "meta_inclination": 69.9997,
        "meta_ra_of_asc_node": 170.5195,
        "meta_arg_of_pericenter": 277.7219,
        "meta_mean_anomaly": 91.7688,
        "meta_ephemeris_type": 0,
        "meta_classification_type": "U",
        "meta_norad_cat_id": 66831,
        "meta_element_set_no": 999,
        "meta_rev_at_epoch": 453,
        "meta_bstar": -3.1716479e-05,
        "meta_mean_motion_dot": -2.118e-05,
        "meta_mean_motion_ddot": 0,
        "tle_line1": "1 66831U 25280L   25356.91670139 -.00002118  00000+0 -31716-4 0  9993",
        "tle_line2": "2 66831  69.9997 170.5195 0003290 277.7219  91.7688 15.52515629  4534"
      },
      "geometry": {
        "type": "Point",
        "coordinates": [
          20.573507080545575,
          -55.04426956778275
        ]
      }
    },
    {
      "type": "Feature",
      "properties": {
        "norad_id": 66832,
        "name": "STARLINK-35768",
        "group": "last-30-days",
        "lat": -56.56733171017979,
        "lon": 22.65200700857548,
        "alt_km": 413.97116890098914,
        "timestamp": "2025-12-23T09:49:05.797860+00:00",
        "meta_object_name": "STARLINK-35768",
        "meta_object_id": "2025-280M",
        "meta_epoch": "2025-12-22T22:00:03.000096",
        "meta_mean_motion": 15.52523395,
        "meta_eccentricity": 0.00032242,
        "meta_inclination": 70,
        "meta_ra_of_asc_node": 170.5163,
        "meta_arg_of_pericenter": 272.3422,
        "meta_mean_anomaly": 99.0684,
        "meta_ephemeris_type": 0,
        "meta_classification_type": "U",
        "meta_norad_cat_id": 66832,
        "meta_element_set_no": 999,
        "meta_rev_at_epoch": 453,
        "meta_bstar": -0.00029232588,
        "meta_mean_motion_dot": -0.00018113,
        "meta_mean_motion_ddot": 0,
        "tle_line1": "1 66832U 25280M   25356.91670139 -.00018113  00000+0 -29233-3 0  9996",
        "tle_line2": "2 66832  70.0000 170.5163 0003224 272.3422  99.0684 15.52523395  4538"
      },
      "geometry": {
        "type": "Point",
        "coordinates": [
          22.65200700857548,
          -56.56733171017979
        ]
      }
    },
    {
      "type": "Feature",
      "properties": {
        "norad_id": 66833,
        "name": "STARLINK-35858",
        "group": "last-30-days",
        "lat": -58.04278648148616,
        "lon": 24.88896370969947,
        "alt_km": 413.9237843035362,
        "timestamp": "2025-12-23T09:49:05.797870+00:00",
        "meta_object_name": "STARLINK-35858",
        "meta_object_id": "2025-280N",
        "meta_epoch": "2025-12-22T22:00:03.000096",
        "meta_mean_motion": 15.52510371,
        "meta_eccentricity": 0.00033436,
        "meta_inclination": 69.9998,
        "meta_ra_of_asc_node": 170.514,
        "meta_arg_of_pericenter": 276.586,
        "meta_mean_anomaly": 96.7351,
        "meta_ephemeris_type": 0,
        "meta_classification_type": "U",
        "meta_norad_cat_id": 66833,
        "meta_element_set_no": 999,
        "meta_rev_at_epoch": 453,
        "meta_bstar": 0.00019297408,
        "meta_mean_motion_dot": 0.00011718,
        "meta_mean_motion_ddot": 0,
        "tle_line1": "1 66833U 25280N   25356.91670139  .00011718  00000+0  19297-3 0  9998",
        "tle_line2": "2 66833  69.9998 170.5140 0003343 276.5860  96.7351 15.52510371  4536"
      },
      "geometry": {
        "type": "Point",
        "coordinates": [
          24.88896370969947,
          -58.04278648148616
        ]
      }
    },
    {
      "type": "Feature",
      "properties": {
        "norad_id": 66834,
        "name": "STARLINK-35840",
        "group": "last-30-days",
        "lat": -59.481714386855536,
        "lon": 27.325307858808756,
        "alt_km": 413.7567722150079,
        "timestamp": "2025-12-23T09:49:05.797880+00:00",
        "meta_object_name": "STARLINK-35840",
        "meta_object_id": "2025-280P",
        "meta_epoch": "2025-12-22T22:00:03.000096",
        "meta_mean_motion": 15.52512695,
        "meta_eccentricity": 0.00034834,
        "meta_inclination": 70,
        "meta_ra_of_asc_node": 170.5111,
        "meta_arg_of_pericenter": 272.0575,
        "meta_mean_anomaly": 103.1819,
        "meta_ephemeris_type": 0,
        "meta_classification_type": "U",
        "meta_norad_cat_id": 66834,
        "meta_element_set_no": 999,
        "meta_rev_at_epoch": 453,
        "meta_bstar": 8.1045741e-05,
        "meta_mean_motion_dot": 4.82e-05,
        "meta_mean_motion_ddot": 0,
        "tle_line1": "1 66834U 25280P   25356.91670139  .00004820  00000+0  81046-4 0  9997",
        "tle_line2": "2 66834  70.0000 170.5111 0003483 272.0575 103.1819 15.52512695  4534"
      },
      "geometry": {
        "type": "Point",
        "coordinates": [
          27.325307858808756,
          -59.481714386855536
        ]
      }
    }
  ]
}